FALCONSAT-10            
1 58291U 23174AM  26068.70247784  .00006748  00000+0  25969-3 0  9991
2 58291  97.3865 145.7938 0008932 169.5942 190.5483 15.26670596129582
STARLINK-34048          
1 63816U 25092N   26068.31506782  .00024390  00000+0  89272-3 0  9994
2 63816  42.9972 174.9792 0000770 251.6672 108.4096 15.27586411 48607
